DMSP 5D-3 F16 (USA 172) 
1 28054U 03048A   26072.95484583  .00000167  00000+0  11071-3 0  9993
2 28054  98.9988  96.1142 0008011  62.0661   9.5209 14.14463874156027
METEOSAT-9 (MSG-2)      
1 28912U 05049B   26072.50792468  .00000128  00000+0  00000+0 0  9997
2 28912   9.1445  55.0898 0000184  58.1827 286.5308  1.00267419  6037
DMSP 5D-3 F17 (USA 191) 
1 29522U 06050A   26072.99148216  .00000210  00000+0  13080-3 0  9995
2 29522  98.7413  81.4992 0009530 334.1317  25.9379 14.14966186998957
FENGYUN 3A              
1 32958U 08026A   26072.32994884  .00000108  00000+0  71678-4 0  9998
2 32958  98.6798  15.0003 0009589  48.8717 311.3286 14.19547633921808
GOES 14                 
1 35491U 09033A   26072.75161693  .00000112  00000+0  00000+0 0  9994
2 35491   1.4419  84.2753 0001692 274.0164 279.7874  1.00103165  5639
DMSP 5D-3 F18 (USA 210) 
1 35951U 09057A   26072.95551591  .00000306  00000+0  18149-3 0  9995
2 35951  98.8968  53.9706 0011368 156.3337 203.8361 14.14838953846120
EWS-G2 (GOES 15)        
1 36411U 10008A   26072.93922215  .00000021  00000+0  00000+0 0  9995
2 36411   1.0303  84.9252 0002484  17.3603 110.7982  1.00270250 58684
COMS 1                  
1 36744U 10032A   26072.95204889 -.00000343  00000+0  00000+0 0  9991
2 36744   4.5581  76.7183 0000828 289.5493 276.1976  1.00273050 50134
FENGYUN 3B              
1 37214U 10059A   26072.98086038  .00000305  00000+0  18105-3 0  9996
2 37214  98.9762 118.5393 0023129  96.5239 357.9847 14.14819435793968
SUOMI NPP               
1 37849U 11061A   26072.90183664  .00000093  00000+0  65197-4 0  9997
2 37849  98.7874  14.4711 0000658 200.5681 159.5469 14.19544897744922
METEOSAT-10 (MSG-3)     
1 38552U 12035B   26072.78408814 -.00000005  00000+0  00000+0 0  9995
2 38552   4.4446  61.4162 0002364 288.1943 104.2224  1.00269283 49905
METOP-B                 
1 38771U 12049A   26072.87963402  .00000118  00000+0  74008-4 0  9990
2 38771  98.6633 126.2283 0001289 243.4036 116.7009 14.21446130699722
INSAT-3D                
1 39216U 13038B   26072.95230889 -.00000339  00000+0  00000+0 0  9991
2 39216   1.6784  83.7884 0001522 245.9737 314.1374  1.00276492 46121
FENGYUN 3C              
1 39260U 13052A   26072.91632542  .00000155  00000+0  99835-4 0  9998
2 39260  98.4898  51.2107 0013677 300.2601  59.7219 14.15730569645087
METEOR-M 2              
1 40069U 14037A   26072.90686596  .00000231  00000+0  12505-3 0  9991
2 40069  98.5033  52.0647 0005117 324.2387  35.8447 14.21431353605780
HIMAWARI-8              
1 40267U 14060A   26072.95456223 -.00000276  00000+0  00000+0 0  9997
2 40267   0.0131 157.4904 0000274 176.8314 321.5741  1.00271785 41806
FENGYUN 2G              
1 40367U 14090A   26072.94641552 -.00000301  00000+0  00000+0 0  9990
2 40367   5.3967  73.9645 0001456 140.4440  37.5814  1.00271160 41044
METEOSAT-11 (MSG-4)     
1 40732U 15034A   26072.92856211  .00000062  00000+0  00000+0 0  9996
2 40732   2.9621  71.6237 0001832 274.1058 169.3427  1.00269111  6262
ELEKTRO-L 2             
1 41105U 15074A   26072.78122813 -.00000115  00000+0  00000+0 0  9993
2 41105   6.4534  71.6918 0002834 248.8416 117.5948  1.00273565 37551
INSAT-3DR               
1 41752U 16054A   26072.94130216 -.00000077  00000+0  00000+0 0  9991
2 41752   0.0706  91.8349 0012709 190.4270 302.1584  1.00272044 34864
HIMAWARI-9              
1 41836U 16064A   26072.32490329 -.00000275  00000+0  00000+0 0  9991
2 41836   0.0168 188.9082 0001493 206.6887  33.0744  1.00270032 34248
GOES 16                 
1 41866U 16071A   26072.90594201 -.00000091  00000+0  00000+0 0  9996
2 41866   0.1289  87.3161 0002173 229.6572  75.9976  1.00272494 34143
FENGYUN 4A              
1 41882U 16077A   26072.95118221 -.00000356  00000+0  00000+0 0  9993
2 41882   2.0790  81.2886 0007134 133.1594  63.2972  1.00274861 33977
CYGFM05                 
1 41884U 16078A   26072.94494382  .00026234  00000+0  41533-3 0  9992
2 41884  34.9573 169.2900 0006782 323.4143  36.6117 15.52408491513921
CYGFM04                 
1 41885U 16078B   26072.59964262  .00032125  00000+0  44777-3 0  9992
2 41885  34.9328 143.4919 0005281 356.9984   3.0707 15.55866739514077
CYGFM02                 
1 41886U 16078C   26072.87938526  .00033359  00000+0  42553-3 0  9998
2 41886  34.9415 138.4466 0006175   2.2839 357.7913 15.58221566514264
CYGFM01                 
1 41887U 16078D   26072.97086736  .00027998  00000+0  43590-3 0  9991
2 41887  34.9405 170.8793 0006564 314.7733  45.2456 15.52862452513879
CYGFM08                 
1 41888U 16078E   26072.62456750  .00030385  00000+0  44163-3 0  9992
2 41888  34.9433 154.9395 0007643 341.3808  18.6635 15.54723733514065
CYGFM07                 
1 41890U 16078G   26072.59043391  .00031297  00000+0  44926-3 0  9994
2 41890  34.9452 143.6001 0005769   0.0004   0.0719 15.55072663514082
CYGFM03                 
1 41891U 16078H   26072.88244596  .00029386  00000+0  42171-3 0  9993
2 41891  34.9409 143.6443 0005173 345.7217  14.3360 15.55092250514106
FENGYUN 3D              
1 43010U 17072A   26072.93518633 -.00000182  00000+0 -64236-4 0  9997
2 43010  99.0036  45.6839 0001371   4.2699 355.8488 14.19715637431478
NOAA 20 (JPSS-1)        
1 43013U 17073A   26072.91653395  .00000080  00000+0  59089-4 0  9999
2 43013  98.7695  13.2616 0001386 132.2002 227.9292 14.19537291430950
GOES 17                 
1 43226U 18022A   26072.90897537 -.00000183  00000+0  00000+0 0  9996
2 43226   0.6911  87.3356 0001630 234.7690  87.1436  1.00272704 29462
FENGYUN 2H              
1 43491U 18050A   26072.94234218 -.00000127  00000+0  00000+0 0  9994
2 43491   2.7836  80.2328 0001328 170.6763 338.9950  1.00272645 28482
METOP-C                 
1 43689U 18087A   26072.90385955  .00000128  00000+0  78446-4 0  9998
2 43689  98.6757 134.2051 0002190  94.1703 265.9725 14.21498481381297
GEO-KOMPSAT-2A          
1 43823U 18100A   26072.88080858 -.00000344  00000+0  00000+0 0  9992
2 43823   0.0353  28.8660 0001630  26.5438 201.4435  1.00271383 26676
METEOR-M2 2             
1 44387U 19038A   26072.98992590  .00000214  00000+0  11246-3 0  9998
2 44387  98.9095  58.9012 0000638 351.3673   8.7494 14.24336458347745
ARKTIKA-M 1             
1 47719U 21016A   26072.78872222 -.00000108  00000+0  00000+0 0  9991
2 47719  63.2042  71.2738 7248342 269.5023  15.1596  2.00619294 36876
FENGYUN 3E              
1 49008U 21062A   26073.00056674 -.00000012  00000+0  15208-4 0  9991
2 49008  98.7520  77.4664 0002065  34.1501 325.9808 14.19893992243071
GOES 18                 
1 51850U 22021A   26072.68557663  .00000096  00000+0  00000+0 0  9992
2 51850   0.0336  32.9694 0000849  27.5646 220.5705  1.00272980  5631
NOAA 21 (JPSS-2)        
1 54234U 22150A   26072.95119417  .00000096  00000+0  66136-4 0  9992
2 54234  98.7557  13.1682 0002732  98.9666 261.1819 14.19553521173038
METEOSAT-12 (MTG-I1)    
1 54743U 22170C   26072.96155966 -.00000008  00000+0  00000+0 0  9996
2 54743   0.7111  22.8669 0001755 291.6925 202.8350  1.00271305 12024
TIANMU-1 03             
1 55973U 23039A   26072.96160014  .00019210  00000+0  41770-3 0  9994
2 55973  97.5179 243.4252 0004002  89.3772 270.7935 15.44364932166123
TIANMU-1 04             
1 55974U 23039B   26072.98390928  .00019717  00000+0  42261-3 0  9994
2 55974  97.5112 242.6070 0004574  84.4882 275.6888 15.44783100166136
TIANMU-1 05             
1 55975U 23039C   26072.93835479  .00020373  00000+0  44368-3 0  9995
2 55975  97.5159 243.0508 0003868 106.2195 253.9479 15.44306374166100
TIANMU-1 06             
1 55976U 23039D   26072.98363689  .00019383  00000+0  41513-3 0  9998
2 55976  97.5170 243.6418 0004132 101.5186 258.6527 15.44810350166136
FENGYUN 3G              
1 56232U 23055A   26072.94645672  .00028581  00000+0  46911-3 0  9990
2 56232  49.9923 117.0636 0005970 312.4378  47.6084 15.52127836165202
METEOR-M2 3             
1 57166U 23091A   26072.96309133  .00000004  00000+0  20656-4 0  9997
2 57166  98.6205 129.8404 0005102  89.4790 270.6973 14.24038092140967
TIANMU-1 07             
1 57399U 23101A   26072.96911865  .00008111  00000+0  28875-3 0  9995
2 57399  97.2723 125.8230 0004912 125.6685 234.5013 15.29196852147092
TIANMU-1 08             
1 57400U 23101B   26066.00237819  .00000346  00000+0  14775-4 0  9993
2 57400  97.2717 118.7901 0006380 134.2174 225.9592 15.29204229146020
TIANMU-1 09             
1 57401U 23101C   26072.92068894  .00008216  00000+0  29288-3 0  9995
2 57401  97.2670 125.0261 0005152 128.9701 231.1999 15.29148099147080
TIANMU-1 10             
1 57402U 23101D   26072.95449708  .00008757  00000+0  31055-3 0  9991
2 57402  97.2748 126.0073 0007131 122.4870 237.7060 15.29286961147086
FENGYUN 3F              
1 57490U 23111A   26072.91595716  .00000074  00000+0  55160-4 0  9994
2 57490  98.6915 144.6710 0001168  77.6950 282.4358 14.19920545135346
ARKTIKA-M 2             
1 58584U 23198A   26064.07652728  .00000150  00000+0  00000+0 0  9992
2 58584  63.2186 165.9003 6877723 267.7621  18.8474  2.00612038 16239
TIANMU-1 11             
1 58645U 23205A   26073.00299884  .00007441  00000+0  29235-3 0  9997
2 58645  97.3547  96.0838 0008478 353.1023   7.0098 15.25944728123000
TIANMU-1 12             
1 58646U 23205B   26072.97004902  .00007116  00000+0  28044-3 0  9994
2 58646  97.3535  95.8292 0006267 338.0402  22.0566 15.25872132122988
TIANMU-1 13             
1 58647U 23205C   26072.93522898  .00007840  00000+0  30821-3 0  9990
2 58647  97.3563  96.0357 0006033 315.3505  44.7247 15.25922908122971
TIANMU-1 14             
1 58648U 23205D   26072.98544169  .00007214  00000+0  28401-3 0  9997
2 58648  97.3497  95.3500 0006892 319.3949  40.6774 15.25898851122989
TIANMU-1 19             
1 58660U 23208A   26072.91590778  .00011773  00000+0  40860-3 0  9992
2 58660  97.4383 188.9076 0003779 297.6585  62.4271 15.29933067122752
TIANMU-1 20             
1 58661U 23208B   26072.96230119  .00010850  00000+0  36316-3 0  9994
2 58661  97.4324 189.4920 0006040 307.3167  52.7523 15.31120598122843
TIANMU-1 21             
1 58662U 23208C   26072.95519929  .00013092  00000+0  41084-3 0  9992
2 58662  97.4378 191.7757 0005853 300.3978  59.6685 15.33147447122963
TIANMU-1 22             
1 58663U 23208D   26072.93461090  .00011215  00000+0  39411-3 0  9992
2 58663  97.4379 188.9346 0002815 335.4147  24.6959 15.29543608122767
TIANMU-1 15             
1 58700U 24004A   26072.98317734  .00007769  00000+0  30571-3 0  9996
2 58700  97.4674 259.2157 0006328 333.9599  26.1320 15.25903320121255
TIANMU-1 16             
1 58701U 24004B   26072.96656759  .00007912  00000+0  31098-3 0  9993
2 58701  97.4616 258.5191 0004837 340.5137  19.5916 15.25939117121257
TIANMU-1 17             
1 58702U 24004C   26072.94880038  .00007639  00000+0  30010-3 0  9990
2 58702  97.4648 258.9572 0004103 344.3538  15.7573 15.25973651121240
TIANMU-1 18             
1 58703U 24004D   26072.93411791  .00008172  00000+0  32135-3 0  9999
2 58703  97.4666 259.1546 0003500 346.1656  13.9485 15.25919715121249
INSAT-3DS               
1 58990U 24033A   26072.94294884 -.00000156  00000+0  00000+0 0  9999
2 58990   0.0309 245.9633 0002149 122.6156 224.5102  1.00272026 46114
METEOR-M2 4             
1 59051U 24039A   26072.94003274  .00000050  00000+0  42174-4 0  9990
2 59051  98.6910  33.4881 0008198  85.8141 274.3973 14.22418077105721
GOES 19                 
1 60133U 24119A   26072.91183537 -.00000249  00000+0  00000+0 0  9998
2 60133   0.0391 356.7363 0001086  44.7433  23.1258  1.00271738  6007
FENGYUN 3H              
1 65815U 25219A   26072.91216589  .00000090  00000+0  62644-4 0  9996
2 65815  98.6688  15.5740 0001198  60.0556 300.0739 14.19933900 23865
